GLOBALSTAR M094 [+]     
1 39074U 13005C   24058.75578954 -.00000098  00000+0  33810-4 0  9997
2 39074  51.9941 189.6642 0000603  98.1759 261.9176 12.62263151512333
GLOBALSTAR M096 [+]     
1 39075U 13005D   24058.92740175 -.00000109  00000+0 -28585-4 0  9990
2 39075  52.0048 237.2866 0000619  77.9556 282.1380 12.62273047511627
GLOBALSTAR M078 [+]     
1 39076U 13005E   24058.90136761 -.00000133  00000+0 -16309-3 0  9996
2 39076  51.9897 322.5260 0000744 172.0747 188.0131 12.62261618509897
GLOBALSTAR M095 [+]     
1 39077U 13005F   24058.92728726 -.00000066  00000+0  21193-3 0  9998
2 39077  51.9819 319.8768 0000077 143.4596 216.6275 12.62263813509758
GLOBALSTAR M087 [+]     
1 52888U 22064A   24058.74289946 -.00000117  00000+0  21143-4 0  9997
2 52888  51.9736 233.4935 0010315  85.1055 275.1023 13.37566200 82741
